# aviation_weather

"<METAR>
<raw_text>KESN 091750Z 29015G22KT 10SM BKN060 11/M06 A3005</raw_text>
<station_id>KESN</station_id>
<observation_time>2020-05-09T17:50:00Z</observation_time>
<latitude>38.8</latitude>
<longitude>-76.07</longitude>
<temp_c>11.0</temp_c>
<dewpoint_c>-6.0</dewpoint_c>
<wind_dir_degrees>290</wind_dir_degrees>
<wind_speed_kt>15</wind_speed_kt>
<wind_gust_kt>22</wind_gust_kt>
<visibility_statute_mi>10.0</visibility_statute_mi>
<altim_in_hg>30.050198</altim_in_hg>
<sky_condition sky_cover="BKN" cloud_base_ft_agl="6000"/>
<flight_category>VFR</flight_category>
<metar_type>METAR</metar_type>
<elevation_m>22.0</elevation_m>
</METAR>"
